NORAD_CAT_ID,OBJECT_NAME,OBJECT_TYPE,EPOCH,MEAN_MOTION,ECCENTRICITY,INCLINATION,RA_OF_ASC_NODE,ARG_OF_PERICENTER,MEAN_ANOMALY,BSTAR,MEAN_MOTION_DOT,MEAN_MOTION_DDOT,TLE_LINE0,TLE_LINE1,TLE_LINE2,SEMIMAJOR_AXIS,PERIOD,APOGEE,PERIGEE,DECAYED
49136.0,STARLINK-3084,PAYLOAD,2024-07-16 13:51:57,14.98336345,0.0003125,70.0025,350.0669,270.6645,89.4156,0.00013408,1.507e-05,0.0,0 STARLINK-3084,1 49136U 21082G   24198.57774629  .00001507  00000-0  13408-3 0  9999,2 49136  70.0025 350.0669 0003125 270.6645  89.4156 14.98336345156448,6950.173,96.107,574.21,569.866,0.0
49136.0,STARLINK-3084,PAYLOAD,2024-07-16 20:16:29,14.98341746,0.0003192,70.0026,349.3938,270.1642,89.9152,0.00021559,2.481e-05,0.0,0 STARLINK-3084,1 49136U 21082G   24198.84478242  .00002481  00000-0  21559-3 0  9999,2 49136  70.0026 349.3938 0003192 270.1642  89.9152 14.98341746156481,6950.157,96.106,574.24,569.803,0.0
49136.0,STARLINK-3084,PAYLOAD,2024-07-17 12:17:50,14.98325685,0.0002832,70.0043,347.713,261.7675,98.3163,-5.7153e-05,-7.75e-06,0.0,0 STARLINK-3084,1 49136U 21082G   24199.51239105 -.00000775  00000-0 -57153-4 0  9993,2 49136  70.0043 347.7130 0002832 261.7675  98.3163 14.98325685156589,6950.206,96.107,574.04,570.103,0.0
49136.0,STARLINK-3084,PAYLOAD,2024-07-17 13:53:58,14.98324956,0.0002835,70.0042,347.5449,262.8172,97.2665,-6.5089e-05,-8.69e-06,0.0,0 STARLINK-3084,1 49136U 21082G   24199.57915148 -.00000869  00000-0 -65089-4 0  9998,2 49136  70.0042 347.5449 0002835 262.8172  97.2665 14.98324956156592,6950.208,96.107,574.044,570.103,0.0
49136.0,STARLINK-3084,PAYLOAD,2024-07-17 20:18:32,14.98288961,0.0002731,70.0029,346.8715,259.2438,100.8414,0.00076212,9.002e-05,0.0,0 STARLINK-3084,1 49136U 21082G   24199.84620931  .00009002  00000-0  76212-3 0  9996,2 49136  70.0029 346.8715 0002731 259.2438 100.8414 14.98288961156638,6950.32,96.11,574.083,570.287,0.0
49136.0,STARLINK-3084,PAYLOAD,2024-07-18 12:19:51,14.98335031,0.0003142,70.0015,345.1864,273.075,87.005,0.00010865,1.204e-05,0.0,0 STARLINK-3084,1 49136U 21082G   24200.51378784  .00001204  00000-0  10865-3 0  9997,2 49136  70.0015 345.1864 0003142 273.0750  87.0050 14.98335031156732,6950.177,96.107,574.226,569.859,0.0
49136.0,STARLINK-3084,PAYLOAD,2024-07-18 13:55:59,14.9833449,0.0003103,70.0018,345.0186,269.5715,90.5088,0.00014694,1.661e-05,0.0,0 STARLINK-3084,1 49136U 21082G   24200.58054720  .00001661  00000-0  14694-3 0  9996,2 49136  70.0018 345.0186 0003103 269.5715  90.5088 14.98334490156748,6950.179,96.107,574.201,569.887,0.0
49136.0,STARLINK-3084,PAYLOAD,2024-07-18 18:44:23,14.98340935,0.0002933,70.0019,344.5136,267.9566,92.1257,0.00020184,2.317e-05,0.0,0 STARLINK-3084,1 49136U 21082G   24200.78082292  .00002317  00000-0  20184-3 0  9993,2 49136  70.0019 344.5136 0002933 267.9566  92.1257 14.98340935156774,6950.159,96.106,574.063,569.986,0.0
49136.0,STARLINK-3084,PAYLOAD,2024-07-19 12:21:52,14.98329287,0.0002848,70.0032,342.6619,266.7902,93.2931,0.00017058,1.943e-05,0.0,0 STARLINK-3084,1 49136U 21082G   24201.51518990  .00001943  00000-0  17058-3 0  9994,2 49136  70.0032 342.6619 0002848 266.7902  93.2931 14.98329287156880,6950.195,96.107,574.04,570.081,0.0
49136.0,STARLINK-3084,PAYLOAD,2024-07-19 13:58:00,14.98329415,0.0002853,70.0033,342.4931,264.8798,95.2035,8.5991e-05,9.33e-06,0.0,0 STARLINK-3084,1 49136U 21082G   24201.58194978  .00000933  00000-0  85991-4 0  9997,2 49136  70.0033 342.4931 0002853 264.8798  95.2035 14.98329415156895,6950.195,96.107,574.043,570.077,0.0
49136.0,STARLINK-3084,PAYLOAD,2024-07-19 18:46:24,14.98327373,0.0002774,70.0022,341.9886,261.6626,98.4218,0.00014111,1.591e-05,0.0,0 STARLINK-3084,1 49136U 21082G   24201.78223101  .00001591  00000-0  14111-3 0  9996,2 49136  70.0022 341.9886 0002774 261.6626  98.4218 14.98327373156926,6950.201,96.107,573.994,570.138,0.0
49136.0,STARLINK-3084,PAYLOAD,2024-07-20 12:23:53,14.98331628,0.0002921,70.0021,340.1373,263.6,96.4827,2.6006e-05,2.17e-06,0.0,0 STARLINK-3084,1 49136U 21082G   24202.51659041  .00000217  00000-0  26006-4 0  9995,2 49136  70.0021 340.1373 0002921 263.6000  96.4827 14.98331628157034,6950.188,96.107,574.083,570.023,0.0
49136.0,STARLINK-3084,PAYLOAD,2024-07-20 14:00:01,14.98332046,0.0002914,70.002,339.969,263.3568,96.7259,2.9755e-05,2.62e-06,0.0,0 STARLINK-3084,1 49136U 21082G   24202.58334989  .00000262  00000-0  29755-4 0  9997,2 49136  70.0020 339.9690 0002914 263.3568  96.7259 14.98332046157047,6950.187,96.107,574.077,570.026,0.0
49136.0,STARLINK-3084,PAYLOAD,2024-07-20 18:48:25,14.98338227,0.0003078,70.0018,339.4646,268.4043,91.6764,9.1049e-05,9.94e-06,0.0,0 STARLINK-3084,1 49136U 21082G   24202.78362445  .00000994  00000-0  91049-4 0  9994,2 49136  70.0018 339.4646 0003078 268.4043  91.6764 14.98338227157071,6950.167,96.106,574.172,569.893,0.0
49136.0,STARLINK-3084,PAYLOAD,2024-07-21 12:25:54,14.98329752,0.0003208,70.0012,337.6104,266.6795,93.3997,6.4626e-05,6.78e-06,0.0,0 STARLINK-3084,1 49136U 21082G   24203.51798949  .00000678  00000-0  64626-4 0  9998,2 49136  70.0012 337.6104 0003208 266.6795  93.3997 14.98329752157185,6950.194,96.107,574.288,569.829,0.0
49136.0,STARLINK-3084,PAYLOAD,2024-07-21 14:02:02,14.9832949,0.0003126,70.0012,337.442,264.4881,95.5922,8.4062e-05,9.1e-06,0.0,0 STARLINK-3084,1 49136U 21082G   24203.58474929  .00000910  00000-0  84062-4 0  9999,2 49136  70.0012 337.4420 0003126 264.4881  95.5922 14.98329490157197,6950.194,96.107,574.232,569.887,0.0
49136.0,STARLINK-3084,PAYLOAD,2024-07-21 18:50:26,14.98337348,0.0003198,70.0012,336.9372,266.1113,93.968,0.00016174,1.838e-05,0.0,0 STARLINK-3084,1 49136U 21082G   24203.78502341  .00001838  00000-0  16174-3 0  9999,2 49136  70.0012 336.9372 0003198 266.1113  93.9680 14.98337348157221,6950.17,96.107,574.258,569.813,0.0
49136.0,STARLINK-3084,PAYLOAD,2024-07-22 09:15:39,14.9832752,0.0003131,70.0016,335.4235,270.5518,89.5282,6.312e-05,6.6e-06,0.0,0 STARLINK-3084,1 49136U 21082G   24204.38587086  .00000660  00000-0  63120-4 0  9991,2 49136  70.0016 335.4235 0003131 270.5518  89.5282 14.98327520157312,6950.201,96.107,574.242,569.889,0.0
49136.0,STARLINK-3084,PAYLOAD,2024-07-23 09:17:39,14.9833259,0.0003171,70.0021,332.8993,276.6075,83.4723,0.00013714,1.544e-05,0.0,0 STARLINK-3084,1 49136U 21082G   24205.38726644  .00001544  00000-0  13714-3 0  9992,2 49136  70.0021 332.8993 0003171 276.6075  83.4723 14.98332590157461,6950.185,96.107,574.254,569.846,0.0
49136.0,STARLINK-3084,PAYLOAD,2024-07-24 09:19:40,14.98331788,0.000293,70.0022,330.3747,274.5084,85.574,3.0824e-05,2.75e-06,0.0,0 STARLINK-3084,1 49136U 21082G   24206.38866802  .00000275  00000-0  30824-4 0  9996,2 49136  70.0022 330.3747 0002930 274.5084  85.5740 14.98331788157618,6950.187,96.107,574.089,570.016,0.0
49136.0,STARLINK-3084,PAYLOAD,2024-07-25 09:21:41,14.98333854,0.0003164,70.0018,327.8494,272.0257,88.0539,6.084e-05,6.33e-06,0.0,0 STARLINK-3084,1 49136U 21082G   24207.39006547  .00000633  00000-0  60840-4 0  9999,2 49136  70.0018 327.8494 0003164 272.0257  88.0539 14.98333854157764,6950.181,96.107,574.245,569.847,0.0
49136.0,STARLINK-3084,PAYLOAD,2024-07-26 09:23:42,14.98331658,0.000308,69.9987,325.3227,269.9891,90.0915,6.0494e-05,6.29e-06,0.0,0 STARLINK-3084,1 49136U 21082G   24208.39146513  .00000629  00000-0  60494-4 0  9998,2 49136  69.9987 325.3227 0003080 269.9891  90.0915 14.98331658157917,6950.188,96.107,574.193,569.912,0.0
49136.0,STARLINK-3084,PAYLOAD,2024-07-26 17:24:22,14.98339138,0.0003113,69.9975,324.4806,271.7159,88.3643,9.6416e-05,1.058e-05,0.0,0 STARLINK-3084,1 49136U 21082G   24208.72525812  .00001058  00000-0  96416-4 0  9998,2 49136  69.9975 324.4806 0003113 271.7159  88.3643 14.98339138157966,6950.165,96.106,574.193,569.866,0.0
49136.0,STARLINK-3084,PAYLOAD,2024-07-27 01:25:03,14.98328484,0.0002801,69.9995,323.6413,270.7348,89.349,1.528e-05,8.9e-07,0.0,0 STARLINK-3084,1 49136U 21082G   24209.05906684  .00000089  00000-0  15280-4 0  9998,2 49136  69.9995 323.6413 0002801 270.7348  89.3490 14.98328484158015,6950.198,96.107,574.009,570.116,0.0
49136.0,STARLINK-3084,PAYLOAD,2024-07-27 09:25:43,14.98327884,0.0002696,70.0007,322.8,272.0047,88.0803,6.0684e-06,-2.1e-07,0.0,0 STARLINK-3084,1 49136U 21082G   24209.39286824 -.00000021  00000-0  60684-5 0  9998,2 49136  70.0007 322.8000 0002696 272.0047  88.0803 14.98327884158060,6950.199,96.107,573.938,570.191,0.0
49136.0,STARLINK-3084,PAYLOAD,2024-07-28 01:27:04,14.98325395,0.0002787,70.0006,321.1167,271.2299,88.8541,2.4818e-05,2.03e-06,0.0,0 STARLINK-3084,1 49136U 21082G   24210.06046963  .00000203  00000-0  24818-4 0  9991,2 49136  70.0006 321.1167 0002787 271.2299  88.8541 14.98325395158169,6950.207,96.107,574.009,570.135,0.0
49136.0,STARLINK-3084,PAYLOAD,2024-07-28 12:40:00,14.98335624,0.0003104,70.0002,319.9367,265.8303,94.2502,0.00011762,1.311e-05,0.0,0 STARLINK-3084,1 49136U 21082G   24210.52777977  .00001311  00000-0  11762-3 0  9992,2 49136  70.0002 319.9367 0003104 265.8303  94.2502 14.98335624158233,6950.175,96.107,574.198,569.883,0.0
49136.0,STARLINK-3084,PAYLOAD,2024-07-28 17:28:24,14.98341575,0.0003035,70.0007,319.4326,265.7446,94.3366,9.6949e-05,1.064e-05,0.0,0 STARLINK-3084,1 49136U 21082G   24210.72805618  .00001064  00000-0  96949-4 0  9994,2 49136  70.0007 319.4326 0003035 265.7446  94.3366 14.98341575158262,6950.157,96.106,574.131,569.913,0.0
49136.0,STARLINK-3084,PAYLOAD,2024-07-29 09:29:45,14.98325873,0.0002986,70.0011,317.7497,267.3655,92.7162,0.00011545,1.285e-05,0.0,0 STARLINK-3084,1 49136U 21082G   24211.39566607  .00001285  00000-0  11545-3 0  9993,2 49136  70.0011 317.7497 0002986 267.3655  92.7162 14.98325873158361,6950.206,96.107,574.146,569.995,0.0
49136.0,STARLINK-3084,PAYLOAD,2024-07-29 17:30:25,14.98338379,0.0002658,70.0014,316.9083,272.4283,87.6572,-0.00010993,-1.405e-05,0.0,0 STARLINK-3084,1 49136U 21082G   24211.72946337 -.00001405  00000-0 -10993-3 0  9994,2 49136  70.0014 316.9083 0002658 272.4283  87.6572 14.98338379158415,6950.167,96.106,573.879,570.185,0.0
